[{"OBJECT_NAME":"JILIN-01 KUANFU 02B 3","OBJECT_ID":"2024-169C","EPOCH":"2026-03-09T22:06:48.862368","MEAN_MOTION":15.0924242,"ECCENTRICITY":0.00160506,"INCLINATION":97.5557,"RA_OF_ASC_NODE":159.7436,"ARG_OF_PERICENTER":304.8201,"MEAN_ANOMALY":55.1517,"EPHEMERIS_TYPE":0,"CLASSIFICATION_TYPE":"U","NORAD_CAT_ID":61191,"ELEMENT_SET_NO":999,"REV_AT_EPOCH":8085,"BSTAR":0.00039569069,"MEAN_MOTION_DOT":6.253e-5,"MEAN_MOTION_DDOT":0},{"OBJECT_NAME":"STARLINK-34343","OBJECT_ID":"2025-112M","EPOCH":"2026-03-09T17:18:59.334912","MEAN_MOTION":15.05623506,"ECCENTRICITY":0.00017329,"INCLINATION":97.6018,"RA_OF_ASC_NODE":121.5647,"ARG_OF_PERICENTER":97.9633,"MEAN_ANOMALY":262.1791,"EPHEMERIS_TYPE":0,"CLASSIFICATION_TYPE":"U","NORAD_CAT_ID":64157,"ELEMENT_SET_NO":999,"REV_AT_EPOCH":4331,"BSTAR":0.00015850684,"MEAN_MOTION_DOT":2.225e-5,"MEAN_MOTION_DDOT":0}]
